norad_id,name,regime,epoch,line1,line2,inclination,eccentricity,mean_motion,raan,arg_pericenter,mean_anomaly
43015,MIRATA,LEO,22107.51917499,1 43015U 17073C   22107.51917499  .00008928  00000-0  65478-3 0    12\,2 43015  97.6809   5.1023 0242650  21.7384 339.3919 14.83058824238237,97.6809,0.024265,14.83058824,5.1023,21.7384,339.3919
43015,MIRATA,LEO,22107.65411063,1 43015U 17073C   22107.65411063  .00008937  00000-0  65538-3 0    10\,2 43015  97.6808   5.2322 0242632  21.3006 339.8102 14.83061425238258,97.6808,0.0242632,14.83061425,5.2322,21.3006,339.8102
43015,MIRATA,LEO,22108.26131804,1 43015U 17073C   22108.26131804  .00008708  00000-0  63875-3 0  3730\,2 43015  97.6806   5.8163 0242568  19.3142 341.7071 14.83071717238343,97.6806,0.0242568,14.83071717,5.8163,19.3142,341.7071
43015,MIRATA,LEO,22108.53118628,1 43015U 17073C   22108.53118628  .00009349  00000-0  68540-3 0    13\,2 43015  97.6805   6.0760 0242523  18.4306 342.5507 14.83077461238380,97.6805,0.0242523,14.83077461,6.076,18.4306,342.5507
43015,MIRATA,LEO,22108.66612010,1 43015U 17073C   22108.66612010  .00009317  00000-0  68304-3 0    14\,2 43015  97.6804   6.2058 0242509  17.9890 342.9722 14.83080030238409,97.6804,0.0242509,14.8308003,6.2058,17.989,342.9722
43015,MIRATA,LEO,22109.54318365,1 43015U 17073C   22109.54318365  .00009722  00000-0  71257-3 0    19\,2 43015  97.6799   7.0496 0242360  15.1165 345.7127 14.83097247238539,97.6799,0.024236,14.83097247,7.0496,15.1165,345.7127
43015,MIRATA,LEO,22110.28530639,1 43015U 17073C   22110.28530639  .00009487  00000-0  69562-3 0    16\,2 43015  97.6795   7.7636 0242228  12.6818 348.0344 14.83111290238642,97.6795,0.0242228,14.8311129,7.7636,12.6818,348.0344
43015,MIRATA,LEO,22111.16235156,1 43015U 17073C   22111.16235156  .00010541  00000-0  77233-3 0  3751\,2 43015  97.6793   8.6073 0242084   9.8024 350.7790 14.83129259238775,97.6793,0.0242084,14.83129259,8.6073,9.8024,350.779
43015,MIRATA,LEO,22111.43220947,1 43015U 17073C   22111.43220947  .00011152  00000-0  81678-3 0    16\,2 43015  97.6791   8.8669 0242029   8.9121 351.6274 14.83134339238810,97.6791,0.0242029,14.83134339,8.8669,8.9121,351.6274
43015,MIRATA,LEO,22112.17431251,1 43015U 17073C   22112.17431251  .00010922  00000-0  80015-3 0  3763\,2 43015  97.6791   9.5808 0241913   6.4792 353.9455 14.83150873238920,97.6791,0.0241913,14.83150873,9.5808,6.4792,353.9455
43015,MIRATA,LEO,22112.51162911,1 43015U 17073C   22112.51162911  .00012038  00000-0  88126-3 0    11\,2 43015  97.6791   9.9054 0241843   5.3749 354.9975 14.83159995238976,97.6791,0.0241843,14.83159995,9.9054,5.3749,354.9975
43015,MIRATA,LEO,22113.18625741,1 43015U 17073C   22113.18625741  .00011778  00000-0  86231-3 0  3771\,2 43015  97.6793  10.5544 0241758   3.1712 357.0967 14.83175291239075,97.6793,0.0241758,14.83175291,10.5544,3.1712,357.0967
43015,MIRATA,LEO,22113.52356868,1 43015U 17073C   22113.52356868  .00012324  00000-0  90203-3 0    16\,2 43015  97.6794  10.8788 0241698   2.0708 358.1449 14.83183707239129,97.6794,0.0241698,14.83183707,10.8788,2.0708,358.1449
43015,MIRATA,LEO,22114.19818552,1 43015U 17073C   22114.19818552  .00012579  00000-0  92044-3 0  3787\,2 43015  97.6795  11.5279 0241607 359.8633   0.2476 14.83200585239223,97.6795,0.0241607,14.83200585,11.5279,359.8633,0.2476
43015,MIRATA,LEO,22114.46803010,1 43015U 17073C   22114.46803010  .00012007  00000-0  87888-3 0    19\,2 43015  97.6796  11.7876 0241565 358.9789   1.0900 14.83206503239265,97.6796,0.0241565,14.83206503,11.7876,358.9789,1.09
43015,MIRATA,LEO,22115.21009647,1 43015U 17073C   22115.21009647  .00010553  00000-0  77328-3 0  3797\,2 43015  97.6797  12.5016 0241447 356.5374   3.4158 14.83223401239373,97.6797,0.0241447,14.83223401,12.5016,356.5374,3.4158
43015,MIRATA,LEO,22115.54739644,1 43015U 17073C   22115.54739644  .00010680  00000-0  78258-3 0    16\,2 43015  97.6798  12.8262 0241374 355.4277   4.4731 14.83231530239425,97.6798,0.0241374,14.8323153,12.8262,355.4277,4.4731
43015,MIRATA,LEO,22116.22199176,1 43015U 17073C   22116.22199176  .00009980  00000-0  73176-3 0  3807\,2 43015  97.6799  13.4755 0241266 353.2016   6.5943 14.83245821239524,97.6799,0.0241266,14.83245821,13.4755,353.2016,6.5943
43015,MIRATA,LEO,22116.42436897,1 43015U 17073C   22116.42436897  .00010097  00000-0  74027-3 0    10\,2 43015  97.6799  13.6703 0241226 352.5342   7.2304 14.83250287239553,97.6799,0.0241226,14.83250287,13.6703,352.5342,7.2304
43015,MIRATA,LEO,22117.50370373,1 43015U 17073C   22117.50370373  .00011959  00000-0  87573-3 0    14\,2 43015  97.6800  14.7092 0241026 348.9839  10.6150 14.83277093239716,97.68,0.0241026,14.83277093,14.7092,348.9839,10.615
43015,MIRATA,LEO,22118.51556138,1 43015U 17073C   22118.51556138  .00014592  00000-0  10671-2 0  3823\,2 43015  97.6800  15.6833 0240804 345.6640  13.7820 14.83307143239860,97.68,0.0240804,14.83307143,15.6833,345.664,13.782
43015,MIRATA,LEO,22119.45994316,1 43015U 17073C   22119.45994316  .00014150  00000-0  10351-2 0    14\,2 43015  97.6799  16.5924 0240602 342.5715  16.7343 14.83335482240001,97.6799,0.0240602,14.83335482,16.5924,342.5715,16.7343
43015,MIRATA,LEO,22119.66230855,1 43015U 17073C   22119.66230855  .00013512  00000-0  98867-3 0    18\,2 43015  97.6799  16.7871 0240572 341.9075  17.3685 14.83340973240032,97.6799,0.0240572,14.83340973,16.7871,341.9075,17.3685
43015,MIRATA,LEO,22120.60666983,1 43015U 17073C   22120.60666983  .00012827  00000-0  93888-3 0    15\,2 43015  97.6796  17.6963 0240411 338.8021  20.3359 14.83367228240178,97.6796,0.0240411,14.83367228,17.6963,338.8021,20.3359
43015,MIRATA,LEO,22120.67412357,1 43015U 17073C   22120.67412357  .00012718  00000-0  93092-3 0    12\,2 43015  97.6796  17.7612 0240407 338.5813  20.5470 14.83369189240186,97.6796,0.0240407,14.83369189,17.7612,338.5813,20.547
43015,MIRATA,LEO,22121.61847043,1 43015U 17073C   22121.61847043  .00010063  00000-0  73800-3 0    17\,2 43015  97.6792  18.6703 0240272 335.4653  23.5277 14.83388330240324,97.6792,0.0240272,14.8338833,18.6703,335.4653,23.5277
43015,MIRATA,LEO,22121.68592336,1 43015U 17073C   22121.68592336  .00009962  00000-0  73064-3 0    14\,2 43015  97.6792  18.7352 0240259 335.2429  23.7405 14.83389684240338,97.6792,0.0240259,14.83389684,18.7352,335.2429,23.7405
43015,MIRATA,LEO,22122.42790240,1 43015U 17073C   22122.42790240  .00009176  00000-0  67357-3 0    16\,2 43015  97.6788  19.4494 0240158 332.7896  26.0898 14.83401915240442,97.6788,0.0240158,14.83401915,19.4494,332.7896,26.0898
43015,MIRATA,LEO,22122.69771184,1 43015U 17073C   22122.69771184  .00008180  00000-0  60114-3 0    19\,2 43015  97.6787  19.7091 0240125 331.8989  26.9432 14.83405325240480,97.6787,0.0240125,14.83405325,19.7091,331.8989,26.9432
43015,MIRATA,LEO,22123.50713514,1 43015U 17073C   22123.50713514  .00007998  00000-0  58803-3 0    11\,2 43015  97.6784  20.4881 0239990 329.2344  29.4983 14.83418033240600,97.6784,0.023999,14.83418033,20.4881,329.2344,29.4983
43015,MIRATA,LEO,22124.18164992,1 43015U 17073C   22124.18164992  .00009231  00000-0  67785-3 0  3874\,2 43015  97.6782  21.1373 0239869 327.0087  31.6350 14.83430650240700,97.6782,0.0239869,14.8343065,21.1373,327.0087,31.635
43015,MIRATA,LEO,22124.45145380,1 43015U 17073C   22124.45145380  .00008333  00000-0  61259-3 0    19\,2 43015  97.6781  21.3970 0239834 326.1201  32.4886 14.83434151240741,97.6781,0.0239834,14.83434151,21.397,326.1201,32.4886
43015,MIRATA,LEO,22125.26086196,1 43015U 17073C   22125.26086196  .00013698  00000-0  10029-2 0    16\,2 43015  97.6779  22.1759 0239651 323.4572  35.0492 14.83456675240860,97.6779,0.0239651,14.83456675,22.1759,323.4572,35.0492
43015,MIRATA,LEO,22126.27261347,1 43015U 17073C   22126.27261347  .00011442  00000-0  83896-3 0  3898\,2 43015  97.6777  23.1496 0239532 320.1200  38.2625 14.83469666241012,97.6777,0.0239532,14.83469666,23.1496,320.12,38.2625
43015,MIRATA,LEO,22126.47496288,1 43015U 17073C   22126.47496288  .00010670  00000-0  78281-3 0    19\,2 43015  97.6776  23.3444 0239517 319.4464  38.9117 14.83470965241042,97.6776,0.0239517,14.83470965,23.3444,319.4464,38.9117
43015,MIRATA,LEO,22127.21690668,1 43015U 17073C   22127.21690668  .00008823  00000-0  64841-3 0  3905\,2 43015  97.6776  24.0584 0239464 316.9991  41.2722 14.83479614241154,97.6776,0.0239464,14.83479614,24.0584,316.9991,41.2722
43015,MIRATA,LEO,22127.48670320,1 43015U 17073C   22127.48670320  .00008586  00000-0  63113-3 0    13\,2 43015  97.6778  24.3182 0239463 316.0988  42.1414 14.83482825241199,97.6778,0.0239463,14.83482825,24.3182,316.0988,42.1414
43015,MIRATA,LEO,22127.68905052,1 43015U 17073C   22127.68905052  .00008458  00000-0  62188-3 0    17\,2 43015  97.6773  24.5129 0239404 315.4476  42.7707 14.83485818241227,97.6773,0.0239404,14.83485818,24.5129,315.4476,42.7707
43015,MIRATA,LEO,22128.49843813,1 43015U 17073C   22128.49843813  .00007247  00000-0  53380-3 0    12\,2 43015  97.6775  25.2922 0239356 312.7677  45.3618 14.83492576241349,97.6775,0.0239356,14.83492576,25.2922,312.7677,45.3618
43015,MIRATA,LEO,22128.70078395,1 43015U 17073C   22128.70078395  .00007236  00000-0  53300-3 0    11\,2 43015  97.6776  25.4869 0239338 312.1004  46.0077 14.83495453241377,97.6776,0.0239338,14.83495453,25.4869,312.1004,46.0077
43015,MIRATA,LEO,22129.51016525,1 43015U 17073C   22129.51016525  .00006472  00000-0  47738-3 0    17\,2 43015  97.6779  26.2661 0239253 309.4283  48.5968 14.83504108241490,97.6779,0.0239253,14.83504108,26.2661,309.4283,48.5968
43015,MIRATA,LEO,22129.64506165,1 43015U 17073C   22129.64506165  .00006556  00000-0  48353-3 0    12\,2 43015  97.6778  26.3959 0239240 308.9810  49.0308 14.83505900241514,97.6778,0.023924,14.835059,26.3959,308.981,49.0308
43015,MIRATA,LEO,22130.52188440,1 43015U 17073C   22130.52188440  .00005951  00000-0  43951-3 0    10\,2 43015  97.6781  27.2401 0239147 306.0886  51.8392 14.83516386241646,97.6781,0.0239147,14.83516386,27.2401,306.0886,51.8392
